{"type": "FeatureCollection", "features": [ {"type": "Feature", "properties": {"norad_id": 66649, "name": "COSMOS 2599 (RODNIK-S 24)", "group": "last-30-days", "lat": 52.426324787392545, "lon": -57.42461806395332, "alt_km": 1494.547813695237, "timestamp": "2025-12-02T15:49:05.950371+00:00", "meta": {"OBJECT_NAME": "COSMOS 2599 (RODNIK-S 24)", "OBJECT_ID": "2025-273C", "EPOCH": "2025-12-02T07:47:54.282048", "MEAN_MOTION": 12.41671766, "ECCENTRICITY": 0.00083961, "INCLINATION": 82.5022, "RA_OF_ASC_NODE": 292.9275, "ARG_OF_PERICENTER": 323.7492, "MEAN_ANOMALY": 36.3018, "EPHEMERIS_TYPE": 0, "CLASSIFICATION_TYPE": "U", "NORAD_CAT_ID": 66649, "ELEMENT_SET_NO": 999, "REV_AT_EPOCH": 84, "BSTAR": -0.00013134251, "MEAN_MOTION_DOT": -8e-08, "MEAN_MOTION_DDOT": 0}, "tle": {"line1": "1 66649U 25273C   25336.32493382 -.00000008  00000+0 -13134-3 0  9997", "line2": "2 66649  82.5022 292.9275 0008396 323.7492  36.3018 12.41671766   848"}}, "geometry": {"type": "Point", "coordinates": [-57.42461806395332, 52.426324787392545]}}, {"type": "Feature", "properties": {"norad_id": 66650, "name": "2025-274A", "group": "last-30-days", "lat": -13.33477043563526, "lon": 82.18588807761222, "alt_km": 598.4435044122274, "timestamp": "2025-12-02T15:49:05.950381+00:00", "meta": {"OBJECT_NAME": "2025-274A", "OBJECT_ID": "2025-274A", "EPOCH": "2025-12-02T00:27:47.322144", "MEAN_MOTION": 14.91599451, "ECCENTRICITY": 0.00104776, "INCLINATION": 97.7378, "RA_OF_ASC_NODE": 263.405, "ARG_OF_PERICENTER": 292.6464, "MEAN_ANOMALY": 67.3646, "EPHEMERIS_TYPE": 0, "CLASSIFICATION_TYPE": "U", "NORAD_CAT_ID": 66650, "ELEMENT_SET_NO": 999, "REV_AT_EPOCH": 80, "BSTAR": 0.00026443629, "MEAN_MOTION_DOT": 2.6e-05, "MEAN_MOTION_DDOT": 0}, "tle": {"line1": "1 66650U 25274A   25336.01929771  .00002600  00000+0  26444-3 0  9998", "line2": "2 66650  97.7378 263.4050 0010477 292.6464  67.3646 14.91599451   806"}}, "geometry": {"type": "Point", "coordinates": [82.18588807761222, -13.33477043563526]}}, {"type": "Feature", "properties": {"norad_id": 66651, "name": "2025-274B", "group": "last-30-days", "lat": -14.544866487256789, "lon": 82.01136850302822, "alt_km": 598.1426067807552, "timestamp": "2025-12-02T15:49:05.950393+00:00", "meta": {"OBJECT_NAME": "2025-274B", "OBJECT_ID": "2025-274B", "EPOCH": "2025-12-02T05:17:17.286144", "MEAN_MOTION": 14.91666982, "ECCENTRICITY": 0.00107801, "INCLINATION": 97.7374, "RA_OF_ASC_NODE": 263.6024, "ARG_OF_PERICENTER": 291.3987, "MEAN_ANOMALY": 68.6081, "EPHEMERIS_TYPE": 0, "CLASSIFICATION_TYPE": "U", "NORAD_CAT_ID": 66651, "ELEMENT_SET_NO": 999, "REV_AT_EPOCH": 83, "BSTAR": 0.00051317074, "MEAN_MOTION_DOT": 5.109e-05, "MEAN_MOTION_DDOT": 0}, "tle": {"line1": "1 66651U 25274B   25336.22033896  .00005109  00000+0  51317-3 0  9990", "line2": "2 66651  97.7374 263.6024 0010780 291.3987  68.6081 14.91666982   833"}}, "geometry": {"type": "Point", "coordinates": [82.01136850302822, -14.544866487256789]}}, {"type": "Feature", "properties": {"norad_id": 66652, "name": "2025-274C", "group": "last-30-days", "lat": -17.754851468765807, "lon": 81.53942175276799, "alt_km": 598.4354874355859, "timestamp": "2025-12-02T15:49:05.950403+00:00", "meta": {"OBJECT_NAME": "2025-274C", "OBJECT_ID": "2025-274C", "EPOCH": "2025-12-02T02:03:18.597024", "MEAN_MOTION": 14.91812766, "ECCENTRICITY": 0.00105668, "INCLINATION": 97.7378, "RA_OF_ASC_NODE": 263.4718, "ARG_OF_PERICENTER": 298.6241, "MEAN_ANOMALY": 61.3915, "EPHEMERIS_TYPE": 0, "CLASSIFICATION_TYPE": "U", "NORAD_CAT_ID": 66652, "ELEMENT_SET_NO": 999, "REV_AT_EPOCH": 81, "BSTAR": 0.0003552139, "MEAN_MOTION_DOT": 3.532e-05, "MEAN_MOTION_DDOT": 0}, "tle": {"line1": "1 66652U 25274C   25336.08563191  .00003532  00000+0  35521-3 0  9998", "line2": "2 66652  97.7378 263.4718 0010566 298.6241  61.3915 14.91812766   818"}}, "geometry": {"type": "Point", "coordinates": [81.53942175276799, -17.754851468765807]}}, {"type": "Feature", "properties": {"norad_id": 66653, "name": "2025-274D", "group": "last-30-days", "lat": -17.928822098958552, "lon": 81.51285880956858, "alt_km": 597.8546736668486, "timestamp": "2025-12-02T15:49:05.950413+00:00", "meta": {"OBJECT_NAME": "2025-274D", "OBJECT_ID": "2025-274D", "EPOCH": "2025-12-02T02:03:15.458976", "MEAN_MOTION": 14.91817003, "ECCENTRICITY": 0.00114739, "INCLINATION": 97.7373, "RA_OF_ASC_NODE": 263.4712, "ARG_OF_PERICENTER": 293.8442, "MEAN_ANOMALY": 66.1574, "EPHEMERIS_TYPE": 0, "CLASSIFICATION_TYPE": "U", "NORAD_CAT_ID": 66653, "ELEMENT_SET_NO": 999, "REV_AT_EPOCH": 81, "BSTAR": 0.00016079552, "MEAN_MOTION_DOT": 1.568e-05, "MEAN_MOTION_DDOT": 0}, "tle": {"line1": "1 66653U 25274D   25336.08559559  .00001568  00000+0  16080-3 0  9998", "line2": "2 66653  97.7373 263.4712 0011473 293.8442  66.1574 14.91817003   819"}}, "geometry": {"type": "Point", "coordinates": [81.51285880956858, -17.928822098958552]}}, {"type": "Feature", "properties": {"norad_id": 66654, "name": "JACK E", "group": "last-30-days", "lat": -21.340053563635514, "lon": 80.99125460384705, "alt_km": 597.4218462344643, "timestamp": "2025-12-02T15:49:05.950425+00:00", "meta": {"OBJECT_NAME": "JACK E", "OBJECT_ID": "2025-274E", "EPOCH": "2025-12-02T02:02:25.386720", "MEAN_MOTION": 14.91983333, "ECCENTRICITY": 0.00119234, "INCLINATION": 97.7378, "RA_OF_ASC_NODE": 263.4727, "ARG_OF_PERICENTER": 295.7238, "MEAN_ANOMALY": 64.275, "EPHEMERIS_TYPE": 0, "CLASSIFICATION_TYPE": "U", "NORAD_CAT_ID": 66654, "ELEMENT_SET_NO": 999, "REV_AT_EPOCH": 81, "BSTAR": 0.00040486871, "MEAN_MOTION_DOT": 4.052e-05, "MEAN_MOTION_DDOT": 0}, "tle": {"line1": "1 66654U 25274E   25336.08501605  .00004052  00000+0  40487-3 0  9997", "line2": "2 66654  97.7378 263.4727 0011923 295.7238  64.2750 14.91983333   810"}}, "geometry": {"type": "Point", "coordinates": [80.99125460384705, -21.340053563635514]}}, {"type": "Feature", "properties": {"norad_id": 66655, "name": "2025-274F", "group": "last-30-days", "lat": -24.135335298705325, "lon": 80.54585466375379, "alt_km": 599.2465121697251, "timestamp": "2025-12-02T15:49:05.950435+00:00", "meta": {"OBJECT_NAME": "2025-274F", "OBJECT_ID": "2025-274F", "EPOCH": "2025-12-02T05:14:56.714208", "MEAN_MOTION": 14.92210063, "ECCENTRICITY": 0.00079562, "INCLINATION": 97.7353, "RA_OF_ASC_NODE": 263.6051, "ARG_OF_PERICENTER": 324.1553, "MEAN_ANOMALY": 35.9131, "EPHEMERIS_TYPE": 0, "CLASSIFICATION_TYPE": "U", "NORAD_CAT_ID": 66655, "ELEMENT_SET_NO": 999, "REV_AT_EPOCH": 83, "BSTAR": 0.00043387382, "MEAN_MOTION_DOT": 4.368e-05, "MEAN_MOTION_DDOT": 0}, "tle": {"line1": "1 66655U 25274F   25336.21871197  .00004368  00000+0  43387-3 0  9991", "line2": "2 66655  97.7353 263.6051 0007956 324.1553  35.9131 14.92210063   838"}}, "geometry": {"type": "Point", "coordinates": [80.54585466375379, -24.135335298705325]}}, {"type": "Feature", "properties": {"norad_id": 66656, "name": "2025-274G", "group": "last-30-days", "lat": -25.12415893510916, "lon": 80.38215663182895, "alt_km": 596.860254255469, "timestamp": "2025-12-02T15:49:05.950445+00:00", "meta": {"OBJECT_NAME": "2025-274G", "OBJECT_ID": "2025-274G", "EPOCH": "2025-12-01T17:58:40.345248", "MEAN_MOTION": 14.92160082, "ECCENTRICITY": 0.00126135, "INCLINATION": 97.7374, "RA_OF_ASC_NODE": 263.1441, "ARG_OF_PERICENTER": 298.549, "MEAN_ANOMALY": 61.4459, "EPHEMERIS_TYPE": 0, "CLASSIFICATION_TYPE": "U", "NORAD_CAT_ID": 66656, "ELEMENT_SET_NO": 999, "REV_AT_EPOCH": 76, "BSTAR": 0.00039914085, "MEAN_MOTION_DOT": 4.012e-05, "MEAN_MOTION_DDOT": 0}, "tle": {"line1": "1 66656U 25274G   25335.74907807  .00004012  00000+0  39914-3 0  9994", "line2": "2 66656  97.7374 263.1441 0012613 298.5490  61.4459 14.92160082   764"}}, "geometry": {"type": "Point", "coordinates": [80.38215663182895, -25.12415893510916]}}, {"type": "Feature", "properties": {"norad_id": 66657, "name": "SPIRONE", "group": "last-30-days", "lat": -28.930721835241922, "lon": 79.7294853061653, "alt_km": 598.6403695345962, "timestamp": "2025-12-02T15:49:05.950455+00:00", "meta": {"OBJECT_NAME": "SPIRONE", "OBJECT_ID": "2025-274H", "EPOCH": "2025-12-01T17:57:48.824928", "MEAN_MOTION": 14.92340933, "ECCENTRICITY": 0.00112498, "INCLINATION": 97.7371, "RA_OF_ASC_NODE": 263.1447, "ARG_OF_PERICENTER": 317.7398, "MEAN_ANOMALY": 42.2953, "EPHEMERIS_TYPE": 0, "CLASSIFICATION_TYPE": "U", "NORAD_CAT_ID": 66657, "ELEMENT_SET_NO": 999, "REV_AT_EPOCH": 76, "BSTAR": 0.00040930756, "MEAN_MOTION_DOT": 4.134e-05, "MEAN_MOTION_DDOT": 0}, "tle": {"line1": "1 66657U 25274H   25335.74848177  .00004134  00000+0  40931-3 0  9995", "line2": "2 66657  97.7371 263.1447 0011249 317.7398  42.2953 14.92340933   764"}}, "geometry": {"type": "Point", "coordinates": [79.7294853061653, -28.930721835241922]}}, {"type": "Feature", "properties": {"norad_id": 66658, "name": "2025-274J", "group": "last-30-days", "lat": -32.66210477387534, "lon": 79.04055391877675, "alt_km": 598.2451655700852, "timestamp": "2025-12-02T15:49:05.950465+00:00", "meta": {"OBJECT_NAME": "2025-274J", "OBJECT_ID": "2025-274J", "EPOCH": "2025-12-02T05:12:44.276832", "MEAN_MOTION": 14.92521398, "ECCENTRICITY": 0.00118243, "INCLINATION": 97.7375, "RA_OF_ASC_NODE": 263.6066, "ARG_OF_PERICENTER": 318.6018, "MEAN_ANOMALY": 41.4305, "EPHEMERIS_TYPE": 0, "CLASSIFICATION_TYPE": "U", "NORAD_CAT_ID": 66658, "ELEMENT_SET_NO": 999, "REV_AT_EPOCH": 83, "BSTAR": 0.00044726374, "MEAN_MOTION_DOT": 4.544e-05, "MEAN_MOTION_DDOT": 0}, "tle": {"line1": "1 66658U 25274J   25336.21717913  .00004544  00000+0  44726-3 0  9993", "line2": "2 66658  97.7375 263.6066 0011824 318.6018  41.4305 14.92521398   835"}}, "geometry": {"type": "Point", "coordinates": [79.04055391877675, -32.66210477387534]}}]}